ORBCOMM-X               
1 21576U 91050C   24129.19418587  .00000591  00000+0  19160-3 0  9991
2 21576  98.3912 197.0599 0003100 350.5777   9.5354 14.42482731723939
ORBCOMM FM01            
1 23545U 95017A   24128.93450496  .00005477  00000+0  73437-3 0  9997
2 23545  69.9686 356.7561 0008282 228.5227 131.5212 14.79883496552349
ORBCOMM FM02            
1 23546U 95017B   24128.89522218  .00007342  00000+0  98999-3 0  9998
2 23546  69.9714  16.2715 0009989 222.0426 137.9958 14.79470305552287
ORBCOMM FM08            
1 25112U 97084A   24129.11113522  .00001738  00000+0  56221-3 0  9990
2 25112  45.0137 147.5600 0008103 348.2175  11.8484 14.42500739382989
ORBCOMM FM10            
1 25113U 97084B   24129.39494358  .00001902  00000+0  61221-3 0  9999
2 25113  45.0150 148.0585 0006627 321.1282  38.9091 14.42415525383018
ORBCOMM FM11            
1 25114U 97084C   24129.41344968  .00001883  00000+0  60815-3 0  9990
2 25114  45.0134 148.0365 0007370 322.8730  37.1610 14.42298873383001
ORBCOMM FM12            
1 25115U 97084D   24128.74983531  .00001580  00000+0  51782-3 0  9998
2 25115  45.0142 150.8999 0006452 318.1931  41.8425 14.42252256382679
ORBCOMM FM09            
1 25116U 97084E   24129.31522848  .00001856  00000+0  60084-3 0  9994
2 25116  45.0147 148.8868 0007751 311.6426  48.3760 14.42221775382998
